[
  {
    "OBJECT_NAME": "STARLINK-31458",
    "OBJECT_ID": "24071T",
    "EPOCH": "2025-11-11T06:01:31.934784",
    "MEAN_MOTION": 15.27592874,
    "ECCENTRICITY": 0.0001127,
    "INCLINATION": 43.0035,
    "RA_OF_ASC_NODE": 288.4767,
    "ARG_OF_PERICENTER": 289.697,
    "MEAN_ANOMALY": 70.376,
    "EPHEMERIS_TYPE": 0,
    "CLASSIFICATION_TYPE": "U",
    "NORAD_CAT_ID": 59501,
    "ELEMENT_SET_NO": 999,
    "REV_AT_EPOCH": 9009,
    "BSTAR": 0.00015757,
    "MEAN_MOTION_DOT": 4.078e-05,
    "MEAN_MOTION_DDOT": 0.0,
    "TLE_LINE1": "1 59501U 24071T   25315.25106406  .00004078  00000+0  15757-3 0  9990",
    "TLE_LINE2": "2 59501  43.0035 288.4767 0001127 289.6970  70.3760 15.27592874 90092",
    "COMMENT": "Grouped by shell and plane from TLE"
  },
  {
    "OBJECT_NAME": "STARLINK-31357",
    "OBJECT_ID": "24071U",
    "EPOCH": "2025-11-11T06:55:11.626464",
    "MEAN_MOTION": 15.27619348,
    "ECCENTRICITY": 3.33e-05,
    "INCLINATION": 42.9976,
    "RA_OF_ASC_NODE": 288.7571,
    "ARG_OF_PERICENTER": 270.2258,
    "MEAN_ANOMALY": 89.8556,
    "EPHEMERIS_TYPE": 0,
    "CLASSIFICATION_TYPE": "U",
    "NORAD_CAT_ID": 59502,
    "ELEMENT_SET_NO": 999,
    "REV_AT_EPOCH": 9009,
    "BSTAR": 0.0006378,
    "MEAN_MOTION_DOT": 0.00017351,
    "MEAN_MOTION_DDOT": 0.0,
    "TLE_LINE1": "1 59502U 24071U   25315.28832901  .00017351  00000+0  63780-3 0  9997",
    "TLE_LINE2": "2 59502  42.9976 288.7571 0000333 270.2258  89.8556 15.27619348 90098",
    "COMMENT": "Grouped by shell and plane from TLE"
  },
  {
    "OBJECT_NAME": "STARLINK-31508",
    "OBJECT_ID": "24071V",
    "EPOCH": "2025-11-11T07:00:45.004320",
    "MEAN_MOTION": 15.2759496,
    "ECCENTRICITY": 0.0001232,
    "INCLINATION": 43.0008,
    "RA_OF_ASC_NODE": 288.7843,
    "ARG_OF_PERICENTER": 277.0052,
    "MEAN_ANOMALY": 83.066,
    "EPHEMERIS_TYPE": 0,
    "CLASSIFICATION_TYPE": "U",
    "NORAD_CAT_ID": 59503,
    "ELEMENT_SET_NO": 999,
    "REV_AT_EPOCH": 9009,
    "BSTAR": 0.00027489,
    "MEAN_MOTION_DOT": 7.313e-05,
    "MEAN_MOTION_DDOT": 0.0,
    "TLE_LINE1": "1 59503U 24071V   25315.29218755  .00007313  00000+0  27489-3 0  9997",
    "TLE_LINE2": "2 59503  43.0008 288.7843 0001232 277.0052  83.0660 15.27594960 90099",
    "COMMENT": "Grouped by shell and plane from TLE"
  },
  {
    "OBJECT_NAME": "STARLINK-31533",
    "OBJECT_ID": "24071X",
    "EPOCH": "2025-11-11T07:11:50.791488",
    "MEAN_MOTION": 15.27586031,
    "ECCENTRICITY": 9.64e-05,
    "INCLINATION": 43.0032,
    "RA_OF_ASC_NODE": 288.8412,
    "ARG_OF_PERICENTER": 278.7873,
    "MEAN_ANOMALY": 81.2869,
    "EPHEMERIS_TYPE": 0,
    "CLASSIFICATION_TYPE": "U",
    "NORAD_CAT_ID": 59505,
    "ELEMENT_SET_NO": 999,
    "REV_AT_EPOCH": 9009,
    "BSTAR": 0.00010852000000000001,
    "MEAN_MOTION_DOT": 2.726e-05,
    "MEAN_MOTION_DDOT": 0.0,
    "TLE_LINE1": "1 59505U 24071X   25315.29989342  .00002726  00000+0  10852-3 0  9995",
    "TLE_LINE2": "2 59505  43.0032 288.8412 0000964 278.7873  81.2869 15.27586031 90092",
    "COMMENT": "Grouped by shell and plane from TLE"
  },
  {
    "OBJECT_NAME": "STARLINK-31524",
    "OBJECT_ID": "24071Y",
    "EPOCH": "2025-11-11T06:36:11.810016",
    "MEAN_MOTION": 15.27601966,
    "ECCENTRICITY": 8.38e-05,
    "INCLINATION": 42.9981,
    "RA_OF_ASC_NODE": 281.5403,
    "ARG_OF_PERICENTER": 277.8823,
    "MEAN_ANOMALY": 82.1934,
    "EPHEMERIS_TYPE": 0,
    "CLASSIFICATION_TYPE": "U",
    "NORAD_CAT_ID": 59506,
    "ELEMENT_SET_NO": 999,
    "REV_AT_EPOCH": 9017,
    "BSTAR": 0.00043885999999999996,
    "MEAN_MOTION_DOT": 0.00011842,
    "MEAN_MOTION_DDOT": 0.0,
    "TLE_LINE1": "1 59506U 24071Y   25315.27513669  .00011842  00000+0  43886-3 0  9991",
    "TLE_LINE2": "2 59506  42.9981 281.5403 0000838 277.8823  82.1934 15.27601966 90176",
    "COMMENT": "Grouped by shell and plane from TLE"
  },
  {
    "OBJECT_NAME": "STARLINK-31734",
    "OBJECT_ID": "24074A",
    "EPOCH": "2025-11-11T07:07:33.002400",
    "MEAN_MOTION": 15.27581814,
    "ECCENTRICITY": 0.0001326,
    "INCLINATION": 43.0041,
    "RA_OF_ASC_NODE": 281.2495,
    "ARG_OF_PERICENTER": 265.9202,
    "MEAN_ANOMALY": 94.1498,
    "EPHEMERIS_TYPE": 0,
    "CLASSIFICATION_TYPE": "U",
    "NORAD_CAT_ID": 59534,
    "ELEMENT_SET_NO": 999,
    "REV_AT_EPOCH": 8803,
    "BSTAR": 0.0,
    "MEAN_MOTION_DOT": -1.385e-05,
    "MEAN_MOTION_DDOT": 0.0,
    "TLE_LINE1": "1 59534U 24074A   25315.29690975 -.00001385  00000+0 -40809-4 0  9999",
    "TLE_LINE2": "2 59534  43.0041 281.2495 0001326 265.9202  94.1498 15.27581814 88035",
    "COMMENT": "Grouped by shell and plane from TLE"
  },
  {
    "OBJECT_NAME": "STARLINK-31725",
    "OBJECT_ID": "24074E",
    "EPOCH": "2025-11-11T06:28:48.785376",
    "MEAN_MOTION": 15.2757925,
    "ECCENTRICITY": 0.0001008,
    "INCLINATION": 43.0015,
    "RA_OF_ASC_NODE": 281.6269,
    "ARG_OF_PERICENTER": 292.4628,
    "MEAN_ANOMALY": 67.6117,
    "EPHEMERIS_TYPE": 0,
    "CLASSIFICATION_TYPE": "U",
    "NORAD_CAT_ID": 59538,
    "ELEMENT_SET_NO": 999,
    "REV_AT_EPOCH": 8802,
    "BSTAR": 0.00011360000000000001,
    "MEAN_MOTION_DOT": 2.865e-05,
    "MEAN_MOTION_DDOT": 0.0,
    "TLE_LINE1": "1 59538U 24074E   25315.27000909  .00002865  00000+0  11360-3 0  9994",
    "TLE_LINE2": "2 59538  43.0015 281.6269 0001008 292.4628  67.6117 15.27579250 88020",
    "COMMENT": "Grouped by shell and plane from TLE"
  },
  {
    "OBJECT_NAME": "STARLINK-31736",
    "OBJECT_ID": "24074P",
    "EPOCH": "2025-11-11T00:09:44.476128",
    "MEAN_MOTION": 15.27558984,
    "ECCENTRICITY": 0.0001025,
    "INCLINATION": 43.0029,
    "RA_OF_ASC_NODE": 286.8271,
    "ARG_OF_PERICENTER": 250.9937,
    "MEAN_ANOMALY": 109.0803,
    "EPHEMERIS_TYPE": 0,
    "CLASSIFICATION_TYPE": "U",
    "NORAD_CAT_ID": 59547,
    "ELEMENT_SET_NO": 999,
    "REV_AT_EPOCH": 8794,
    "BSTAR": 0.0,
    "MEAN_MOTION_DOT": -1.375e-05,
    "MEAN_MOTION_DDOT": 0.0,
    "TLE_LINE1": "1 59547U 24074P   25315.00676477 -.00001375  00000+0 -40499-4 0  9997",
    "TLE_LINE2": "2 59547  43.0029 286.8271 0001025 250.9937 109.0803 15.27558984 87940",
    "COMMENT": "Grouped by shell and plane from TLE"
  },
  {
    "OBJECT_NAME": "STARLINK-31872",
    "OBJECT_ID": "24106A",
    "EPOCH": "2025-11-11T05:46:20.777664",
    "MEAN_MOTION": 15.27598562,
    "ECCENTRICITY": 0.0001569,
    "INCLINATION": 43.0038,
    "RA_OF_ASC_NODE": 281.8016,
    "ARG_OF_PERICENTER": 283.2024,
    "MEAN_ANOMALY": 76.8653,
    "EPHEMERIS_TYPE": 0,
    "CLASSIFICATION_TYPE": "U",
    "NORAD_CAT_ID": 59922,
    "ELEMENT_SET_NO": 999,
    "REV_AT_EPOCH": 8244,
    "BSTAR": 0.00015731,
    "MEAN_MOTION_DOT": 4.071e-05,
    "MEAN_MOTION_DDOT": 0.0,
    "TLE_LINE1": "1 59922U 24106A   25315.24051826  .00004071  00000+0  15731-3 0  9995",
    "TLE_LINE2": "2 59922  43.0038 281.8016 0001569 283.2024  76.8653 15.27598562 82448",
    "COMMENT": "Grouped by shell and plane from TLE"
  },
  {
    "OBJECT_NAME": "STARLINK-31972",
    "OBJECT_ID": "24106B",
    "EPOCH": "2025-11-11T06:54:35.754912",
    "MEAN_MOTION": 15.27596397,
    "ECCENTRICITY": 8.69e-05,
    "INCLINATION": 43.0032,
    "RA_OF_ASC_NODE": 281.2929,
    "ARG_OF_PERICENTER": 246.9873,
    "MEAN_ANOMALY": 113.0887,
    "EPHEMERIS_TYPE": 0,
    "CLASSIFICATION_TYPE": "U",
    "NORAD_CAT_ID": 59923,
    "ELEMENT_SET_NO": 999,
    "REV_AT_EPOCH": 8246,
    "BSTAR": 0.00015679000000000002,
    "MEAN_MOTION_DOT": 4.057e-05,
    "MEAN_MOTION_DDOT": 0.0,
    "TLE_LINE1": "1 59923U 24106B   25315.28791383  .00004057  00000+0  15679-3 0  9994",
    "TLE_LINE2": "2 59923  43.0032 281.2929 0000869 246.9873 113.0887 15.27596397 82469",
    "COMMENT": "Grouped by shell and plane from TLE"
  },
  {
    "OBJECT_NAME": "STARLINK-31957",
    "OBJECT_ID": "24106E",
    "EPOCH": "2025-11-11T06:02:47.105376",
    "MEAN_MOTION": 15.27595606,
    "ECCENTRICITY": 0.000116,
    "INCLINATION": 43.0044,
    "RA_OF_ASC_NODE": 281.0274,
    "ARG_OF_PERICENTER": 279.0978,
    "MEAN_ANOMALY": 80.9743,
    "EPHEMERIS_TYPE": 0,
    "CLASSIFICATION_TYPE": "U",
    "NORAD_CAT_ID": 59926,
    "ELEMENT_SET_NO": 999,
    "REV_AT_EPOCH": 8246,
    "BSTAR": 0.00022363,
    "MEAN_MOTION_DOT": 5.9e-05,
    "MEAN_MOTION_DDOT": 0.0,
    "TLE_LINE1": "1 59926U 24106E   25315.25193409  .00005900  00000+0  22363-3 0  9995",
    "TLE_LINE2": "2 59926  43.0044 281.0274 0001160 279.0978  80.9743 15.27595606 82469",
    "COMMENT": "Grouped by shell and plane from TLE"
  },
  {
    "OBJECT_NAME": "STARLINK-31968",
    "OBJECT_ID": "24106F",
    "EPOCH": "2025-11-11T06:13:54.683616",
    "MEAN_MOTION": 15.27583576,
    "ECCENTRICITY": 4.52e-05,
    "INCLINATION": 43.0022,
    "RA_OF_ASC_NODE": 281.0856,
    "ARG_OF_PERICENTER": 261.4075,
    "MEAN_ANOMALY": 98.6725,
    "EPHEMERIS_TYPE": 0,
    "CLASSIFICATION_TYPE": "U",
    "NORAD_CAT_ID": 59927,
    "ELEMENT_SET_NO": 999,
    "REV_AT_EPOCH": 8246,
    "BSTAR": 0.0001919,
    "MEAN_MOTION_DOT": 5.023e-05,
    "MEAN_MOTION_DDOT": 0.0,
    "TLE_LINE1": "1 59927U 24106F   25315.25966069  .00005023  00000+0  19190-3 0  9996",
    "TLE_LINE2": "2 59927  43.0022 281.0856 0000452 261.4075  98.6725 15.27583576 82467",
    "COMMENT": "Grouped by shell and plane from TLE"
  },
  {
    "OBJECT_NAME": "STARLINK-31970",
    "OBJECT_ID": "24106G",
    "EPOCH": "2025-11-11T06:49:02.753760",
    "MEAN_MOTION": 15.27594191,
    "ECCENTRICITY": 9.49e-05,
    "INCLINATION": 43.0021,
    "RA_OF_ASC_NODE": 281.2639,
    "ARG_OF_PERICENTER": 261.6901,
    "MEAN_ANOMALY": 98.3843,
    "EPHEMERIS_TYPE": 0,
    "CLASSIFICATION_TYPE": "U",
    "NORAD_CAT_ID": 59928,
    "ELEMENT_SET_NO": 999,
    "REV_AT_EPOCH": 8246,
    "BSTAR": 0.00012345000000000002,
    "MEAN_MOTION_DOT": 3.138e-05,
    "MEAN_MOTION_DDOT": 0.0,
    "TLE_LINE1": "1 59928U 24106G   25315.28405965  .00003138  00000+0  12345-3 0  9993",
    "TLE_LINE2": "2 59928  43.0021 281.2639 0000949 261.6901  98.3843 15.27594191 82462",
    "COMMENT": "Grouped by shell and plane from TLE"
  }
]